[Satellite]
VERSION=1.1
NAME=COSMOS 482 DESCENT CRAFT
NICKNAME=COSMOS 482 DESCENT CRAFT
TLE1=1 06073U 72023E   17186.13469356  .00016416  50680-5  81556-4 0  9991
TLE2=2 06073  52.0612  39.8182 1543842 340.5025  14.2519 12.64572608363321
